RADARSAT-2              
1 32382U 07061A   26195.95618948 -.00000183  00000+0 -54106-4 0  9998
2 32382  98.5778 202.4919 0001293  85.1441 274.9889 14.29982628969922
